[{"OBJECT_NAME":"STARLINK-5095","OBJECT_ID":"2023-083K","EPOCH":"2026-03-09T09:30:15.912000","MEAN_MOTION":15.02536581,"ECCENTRICITY":0.00013122,"INCLINATION":43.003,"RA_OF_ASC_NODE":83.5917,"ARG_OF_PERICENTER":271.8934,"MEAN_ANOMALY":88.1758,"EPHEMERIS_TYPE":0,"CLASSIFICATION_TYPE":"U","NORAD_CAT_ID":56885,"ELEMENT_SET_NO":999,"REV_AT_EPOCH":15162,"BSTAR":1.9598606e-5,"MEAN_MOTION_DOT":6.1e-7,"MEAN_MOTION_DDOT":0},{"OBJECT_NAME":"MINOTAUR 4 DEB","OBJECT_ID":"2020-046AB","EPOCH":"2026-03-09T21:53:22.840224","MEAN_MOTION":15.04149387,"ECCENTRICITY":0.00103054,"INCLINATION":53.9803,"RA_OF_ASC_NODE":316.6393,"ARG_OF_PERICENTER":80.1776,"MEAN_ANOMALY":280.0387,"EPHEMERIS_TYPE":0,"CLASSIFICATION_TYPE":"U","NORAD_CAT_ID":52037,"ELEMENT_SET_NO":999,"REV_AT_EPOCH":22693,"BSTAR":0.00012711185,"MEAN_MOTION_DOT":1.507e-5,"MEAN_MOTION_DDOT":0}]
